NORAD_CAT_ID,OBJECT_NAME,OBJECT_TYPE,EPOCH,MEAN_MOTION,ECCENTRICITY,INCLINATION,RA_OF_ASC_NODE,ARG_OF_PERICENTER,MEAN_ANOMALY,BSTAR,MEAN_MOTION_DOT,MEAN_MOTION_DDOT,TLE_LINE0,TLE_LINE1,TLE_LINE2,SEMIMAJOR_AXIS,PERIOD,APOGEE,PERIGEE,DECAYED
53782.0,STARLINK-4679,PAYLOAD,2022-10-12 14:00:01,15.73262589,0.000156,53.2157,111.0985,133.006,80.3749,-0.00076184,-0.00106484,0.0,0 STARLINK-4679,1 53782U 22111K   22285.58334491 -.00106484  00000-0 -76184-3 0  9992,2 53782  53.2157 111.0985 0001560 133.0060  80.3749 15.73262589  4890,6727.717,91.53,350.631,348.532,0.0
53782.0,STARLINK-4679,PAYLOAD,2022-10-12 22:00:00,15.73176285,0.0001163,53.217,109.4522,129.9702,172.3696,0.0003081,0.00042796,0.0,0 STARLINK-4679,1 53782U 22111K   22285.91667824  .00042796  00000-0  30810-3 0  9997,2 53782  53.2170 109.4522 0001163 129.9702 172.3696 15.73176285  4945,6727.9630000000025,91.535,350.61,349.045,0.0
53782.0,STARLINK-4679,PAYLOAD,2022-10-13 14:00:01,15.73203867,0.0001551,53.2177,106.1516,126.4907,353.7042,8.0087e-06,5.04e-06,0.0,0 STARLINK-4679,1 53782U 22111K   22286.58334491  .00000504  00000-0  80087-5 0  9996,2 53782  53.2177 106.1516 0001551 126.4907 353.7042 15.73203867  1303,6727.884,91.533,350.793,348.706,0.0
53782.0,STARLINK-4679,PAYLOAD,2022-10-13 20:00:01,15.73044543,0.0001097,53.2171,104.9153,127.7174,329.3289,0.0017274999999999,0.00247451,0.0,0 STARLINK-4679,1 53782U 22111K   22286.83335648  .00247451  00000-0  17275-2 0  9999,2 53782  53.2171 104.9153 0001097 127.7174 329.3289 15.73044543  5091,6728.3380000000025,91.542,350.94199999999995,349.465,0.0
53782.0,STARLINK-4679,PAYLOAD,2022-10-13 22:00:00,15.73159163,0.0001002999999999,53.2173,104.5036,129.725,79.4236,0.00053656,0.00075227,0.0,0 STARLINK-4679,1 53782U 22111K   22286.91667824  .00075227  00000-0  53656-3 0  9996,2 53782  53.2173 104.5036 0001003 129.7250  79.4236 15.73159163  1303,6728.012,91.536,350.551,349.202,0.0
53782.0,STARLINK-4679,PAYLOAD,2022-10-14 08:00:01,15.730584699999998,0.0001262999999999,53.2159,102.4387,133.9056,276.6076,0.00076745,0.00107821,0.0,0 STARLINK-4679,1 53782U 22111K   22287.33335648  .00107821  00000-0  76745-3 0  9999,2 53782  53.2159 102.4387 0001263 133.9056 276.6076 15.73058470  5162,6728.299,91.541,351.01300000000015,349.314,0.0
53782.0,STARLINK-4679,PAYLOAD,2022-10-14 14:00:01,15.73171447,0.0001276,53.2168,101.2025,130.687,256.3258,0.00038674,0.00053939,0.0,0 STARLINK-4679,1 53782U 22111K   22287.58334491  .00053939  00000-0  38674-3 0  9990,2 53782  53.2168 101.2025 0001276 130.6870 256.3258 15.73171447  1309,6727.977,91.535,350.7,348.983,0.0
53782.0,STARLINK-4679,PAYLOAD,2022-10-14 20:00:01,15.73205677,0.0001231999999999,53.2174,99.9674,126.3998,237.297,-1.8839e-05,-3.263e-05,0.0,0 STARLINK-4679,1 53782U 22111K   22287.83334491 -.00003263  00000-0 -18839-4 0  9997,2 53782  53.2174  99.9674 0001232 126.3998 237.2970 15.73205677  1306,6727.879,91.533,350.5730000000001,348.915,0.0
53782.0,STARLINK-4679,PAYLOAD,2022-10-15 06:00:00,15.73188763,0.0001456,53.2173,97.9036,129.1359,75.7382,0.00017451,0.00023929,0.0,0 STARLINK-4679,1 53782U 22111K   22288.25001157  .00023929  00000-0  17451-3 0  9991,2 53782  53.2173  97.9036 0001456 129.1359  75.7382 15.73188763  5318,6727.927,91.534,350.772,348.81300000000016,0.0
53782.0,STARLINK-4679,PAYLOAD,2022-10-15 14:00:01,15.73287282,0.0001117,53.2149,96.2522,113.5984,180.3508,-0.0003151,-0.00044772,0.0,0 STARLINK-4679,1 53782U 22111K   22288.58334491 -.00044772  00000-0 -31510-3 0  9990,2 53782  53.2149  96.2522 0001117 113.5984 180.3508 15.73287282  1302,6727.646,91.528,350.26300000000015,348.76,0.0
53782.0,STARLINK-4679,PAYLOAD,2022-10-15 22:00:01,15.73214477,9.23e-05,53.2143,94.6041,100.2075,282.786,-0.00076133,-0.0010619,0.0,0 STARLINK-4679,1 53782U 22111K   22288.91668981 -.00106190  00000-0 -76133-3 0  9994,2 53782  53.2143  94.6041 0000923 100.2075 282.7860 15.73214477  5412,6727.854,91.532,350.34,349.098,0.0
53782.0,STARLINK-4679,PAYLOAD,2022-10-16 14:00:01,15.7314489,9.24e-05,53.2147,91.3041,111.1295,89.5053,0.00042712,0.00059608,0.0,0 STARLINK-4679,1 53782U 22111K   22289.58334491  .00059608  00000-0  42712-3 0  9999,2 53782  53.2147  91.3041 0000924 111.1295  89.5053 15.73144890  5526,6728.052,91.536,350.539,349.296,0.0
53782.0,STARLINK-4679,PAYLOAD,2022-10-16 22:00:00,15.73181168,8.340000000000001e-05,53.215,89.6569,89.6459,199.8748,0.00062571,0.00088047,0.0,0 STARLINK-4679,1 53782U 22111K   22289.91667824  .00088047  00000-0  62571-3 0  9999,2 53782  53.2150  89.6569 0000834  89.6459 199.8748 15.73181168  1303,6727.949000000001,91.534,350.375,349.25300000000016,0.0
53782.0,STARLINK-4679,PAYLOAD,2022-10-17 06:00:00,15.73175964,0.0001022,53.2156,88.0047,102.1684,276.2834,0.00038257,0.00053357,0.0,0 STARLINK-4679,1 53782U 22111K   22290.25001157  .00053357  00000-0  38257-3 0  9999,2 53782  53.2156  88.0047 0001022 102.1684 276.2834 15.73175964  5626,6727.964,91.535,350.516,349.141,0.0
53782.0,STARLINK-4679,PAYLOAD,2022-10-17 14:00:01,15.73238518,0.0001207,53.2156,86.3559,93.7564,13.6674,-0.00014799,-0.00021371,0.0,0 STARLINK-4679,1 53782U 22111K   22290.58334491 -.00021371  00000-0 -14799-3 0  9993,2 53782  53.2156  86.3559 0001207  93.7564  13.6674 15.73238518  5688,6727.785,91.531,350.462,348.838,0.0
53782.0,STARLINK-4679,PAYLOAD,2022-10-17 22:00:00,15.73202604,0.0001184,53.2143,84.7073,81.3809,114.9666,-2.9021e-05,-4.691e-05,0.0,0 STARLINK-4679,1 53782U 22111K   22290.91667824 -.00004691  00000-0 -29021-4 0  9990,2 53782  53.2143  84.7073 0001184  81.3809 114.9666 15.73202604  5735,6727.888000000001,91.533,350.5490000000001,348.956,0.0
53782.0,STARLINK-4679,PAYLOAD,2022-10-18 14:00:01,15.73209277,0.0001186,53.2146,81.407,86.8222,287.3948,0.00030683,0.00042677,0.0,0 STARLINK-4679,1 53782U 22111K   22291.58334491  .00042677  00000-0  30683-3 0  9994,2 53782  53.2146  81.4070 0001186  86.8222 287.3948 15.73209277  5832,6727.869000000002,91.533,350.532,348.936,0.0
53782.0,STARLINK-4679,PAYLOAD,2022-10-18 22:00:00,15.73215414,0.0001115999999999,53.2144,79.7585,73.6687,29.4675,-3.295e-06,-1.082e-05,0.0,0 STARLINK-4679,1 53782U 22111K   22291.91667824 -.00001082  00000-0 -32950-5 0  9998,2 53782  53.2144  79.7585 0001116  73.6687  29.4675 15.73215414  1303,6727.851,91.532,350.467,348.965,0.0
53782.0,STARLINK-4679,PAYLOAD,2022-10-19 06:00:00,15.7315417,0.0001091,53.2148,78.1068,81.548,110.5333,0.00036263,0.00050479,0.0,0 STARLINK-4679,1 53782U 22111K   22292.25001157  .00050479  00000-0  36263-3 0  9998,2 53782  53.2148  78.1068 0001091  81.5480 110.5333 15.73154170  5945,6728.026,91.536,350.625,349.157,0.0
53782.0,STARLINK-4679,PAYLOAD,2022-10-19 14:00:01,15.73212013,0.0001216,53.2148,76.4585,76.7255,204.2441,5.1341e-05,6.595e-05,0.0,0 STARLINK-4679,1 53782U 22111K   22292.58334491  .00006595  00000-0  51341-4 0  9999,2 53782  53.2148  76.4585 0001216  76.7255 204.2441 15.73212013  1303,6727.861,91.532,350.5440000000001,348.908,0.0
53782.0,STARLINK-4679,PAYLOAD,2022-10-19 22:00:00,15.73252648,0.0001105999999999,53.2159,74.8111,69.8969,300.0537,-0.00078451,-0.00109542,0.0,0 STARLINK-4679,1 53782U 22111K   22292.91667824 -.00109542  00000-0 -78451-3 0  9993,2 53782  53.2159  74.8111 0001106  69.8969 300.0537 15.73252648  1304,6727.745,91.53,350.35400000000016,348.866,0.0
53782.0,STARLINK-4679,PAYLOAD,2022-10-20 06:00:00,15.73199892,0.0001147999999999,53.2142,73.1579,76.2728,22.646,0.00018978,0.00026097,0.0,0 STARLINK-4679,1 53782U 22111K   22293.25001157  .00026097  00000-0  18978-3 0  9991,2 53782  53.2142  73.1579 0001148  76.2728  22.6460 15.73199892  6103,6727.895,91.533,350.533,348.98800000000006,0.0
53782.0,STARLINK-4679,PAYLOAD,2022-10-20 14:00:01,15.73203072,0.0001428,53.2145,71.5095,71.0091,116.8463,-7.2437e-05,-0.00010775,0.0,0 STARLINK-4679,1 53782U 22111K   22293.58334491 -.00010775  00000-0 -72437-4 0  9996,2 53782  53.2145  71.5095 0001428  71.0091 116.8463 15.73203072  1300,6727.886,91.533,350.712,348.791,0.0
53782.0,STARLINK-4679,PAYLOAD,2022-10-20 22:00:00,15.73248662,0.0001381,53.2153,69.8619,62.7589,214.0088,-0.00029777,-0.00042288,0.0,0 STARLINK-4679,1 53782U 22111K   22293.91667824 -.00042288  00000-0 -29777-3 0  9994,2 53782  53.2153  69.8619 0001381  62.7589 214.0088 15.73248662  6200,6727.755999999999,91.53,350.551,348.69199999999995,0.0
53782.0,STARLINK-4679,PAYLOAD,2022-10-21 06:00:00,15.73162884,0.0001291,53.2153,68.209,72.0287,293.6792,0.00057017,0.00080037,0.0,0 STARLINK-4679,1 53782U 22111K   22294.25001157  .00080037  00000-0  57017-3 0  9993,2 53782  53.2153  68.2090 0001291  72.0287 293.6792 15.73162884  6256,6728.001,91.535,350.735,348.997,0.0
53782.0,STARLINK-4679,PAYLOAD,2022-10-21 14:00:01,15.73226243,0.0001479,53.2157,66.5613,63.744,30.913,-0.00018859,-0.00027033,0.0,0 STARLINK-4679,1 53782U 22111K   22294.58334491 -.00027033  00000-0 -18859-3 0  9999,2 53782  53.2157  66.5613 0001479  63.7440  30.9130 15.73226243  1307,6727.82,91.532,350.68,348.69,0.0
53782.0,STARLINK-4679,PAYLOAD,2022-10-21 22:00:00,15.73234454,0.0001479,53.2144,64.9113,56.1969,127.4005,-0.00032818,-0.00046493,0.0,0 STARLINK-4679,1 53782U 22111K   22294.91667824 -.00046493  00000-0 -32818-3 0  9997,2 53782  53.2144  64.9113 0001479  56.1969 127.4005 15.73234454  6369,6727.797,91.531,350.657,348.667,0.0
53782.0,STARLINK-4679,PAYLOAD,2022-10-22 14:00:01,15.73199005,0.0001231999999999,53.2149,61.6117,49.0954,312.3796,0.00020522,0.00028277,0.0,0 STARLINK-4679,1 53782U 22111K   22295.58334491  .00028277  00000-0  20522-3 0  9999,2 53782  53.2149  61.6117 0001232  49.0954 312.3796 15.73199005  1307,6727.898,91.533,350.592,348.934,0.0
53782.0,STARLINK-4679,PAYLOAD,2022-10-22 22:00:00,15.7323888,0.0001365999999999,53.2149,59.9623,43.7351,46.6899,3.7616e-05,4.67e-05,0.0,0 STARLINK-4679,1 53782U 22111K   22295.91667824  .00004670  00000-0  37616-4 0  9999,2 53782  53.2149  59.9623 0001366  43.7351  46.6899 15.73238880  1305,6727.784000000002,91.531,350.5680000000001,348.73,0.0
